{
  "type": "FeatureCollection",
  "features": [
    {
      "type": "Feature",
      "properties": {
        "norad_id": 30947,
        "name": "FENGYUN 1C DEB",
        "group": "fengyun-1c-debris",
        "lat": 6.973172350787026,
        "lon": -114.32887287118955,
        "alt_km": 825.8424267964556,
        "timestamp": "2025-12-22T20:43:46.128215+00:00",
        "meta_object_name": "FENGYUN 1C DEB",
        "meta_object_id": "1999-025BAM",
        "meta_epoch": "2025-12-22T10:40:36.901920",
        "meta_mean_motion": 14.38057514,
        "meta_eccentricity": 0.00958225,
        "meta_inclination": 98.8088,
        "meta_ra_of_asc_node": 246.3285,
        "meta_arg_of_pericenter": 218.7122,
        "meta_mean_anomaly": 140.7171,
        "meta_ephemeris_type": 0,
        "meta_classification_type": "U",
        "meta_norad_cat_id": 30947,
        "meta_element_set_no": 999,
        "meta_rev_at_epoch": 98632,
        "meta_bstar": 0.00024090871,
        "meta_mean_motion_dot": 7.2e-06,
        "meta_mean_motion_ddot": 0,
        "tle_line1": "1 30947U 99025BAM 25356.44487155  .00000720  00000+0  24091-3 0  9994",
        "tle_line2": "2 30947  98.8088 246.3285 0095822 218.7122 140.7171 14.38057514986322"
      },
      "geometry": {
        "type": "Point",
        "coordinates": [
          -114.32887287118955,
          6.973172350787026
        ]
      }
    },
    {
      "type": "Feature",
      "properties": {
        "norad_id": 30949,
        "name": "FENGYUN 1C DEB",
        "group": "fengyun-1c-debris",
        "lat": 39.380560529127074,
        "lon": 178.1648149600131,
        "alt_km": 907.0223245763809,
        "timestamp": "2025-12-22T20:43:46.128225+00:00",
        "meta_object_name": "FENGYUN 1C DEB",
        "meta_object_id": "1999-025BAP",
        "meta_epoch": "2025-12-22T06:32:20.994144",
        "meta_mean_motion": 14.14058038,
        "meta_eccentricity": 0.01161042,
        "meta_inclination": 98.6981,
        "meta_ra_of_asc_node": 350.3705,
        "meta_arg_of_pericenter": 282.4266,
        "meta_mean_anomaly": 90.2041,
        "meta_ephemeris_type": 0,
        "meta_classification_type": "U",
        "meta_norad_cat_id": 30949,
        "meta_element_set_no": 999,
        "meta_rev_at_epoch": 96651,
        "meta_bstar": 0.00022736804,
        "meta_mean_motion_dot": 4.17e-06,
        "meta_mean_motion_ddot": 0,
        "tle_line1": "1 30949U 99025BAP 25356.27246521  .00000417  00000+0  22737-3 0  9995",
        "tle_line2": "2 30949  98.6981 350.3705 0116104 282.4266  90.2041 14.14058038966511"
      },
      "geometry": {
        "type": "Point",
        "coordinates": [
          178.1648149600131,
          39.380560529127074
        ]
      }
    },
    {
      "type": "Feature",
      "properties": {
        "norad_id": 30954,
        "name": "FENGYUN 1C DEB",
        "group": "fengyun-1c-debris",
        "lat": -37.67481113550472,
        "lon": -90.05774646279619,
        "alt_km": 800.5356818603886,
        "timestamp": "2025-12-22T20:43:46.128235+00:00",
        "meta_object_name": "FENGYUN 1C DEB",
        "meta_object_id": "1999-025BAU",
        "meta_epoch": "2025-12-22T13:01:42.043872",
        "meta_mean_motion": 14.14974753,
        "meta_eccentricity": 0.01289155,
        "meta_inclination": 98.7123,
        "meta_ra_of_asc_node": 96.429,
        "meta_arg_of_pericenter": 159.5585,
        "meta_mean_anomaly": 223.6503,
        "meta_ephemeris_type": 0,
        "meta_classification_type": "U",
        "meta_norad_cat_id": 30954,
        "meta_element_set_no": 999,
        "meta_rev_at_epoch": 96526,
        "meta_bstar": 0.00095894165,
        "meta_mean_motion_dot": 1.968e-05,
        "meta_mean_motion_ddot": 0,
        "tle_line1": "1 30954U 99025BAU 25356.54284773  .00001968  00000+0  95894-3 0  9998",
        "tle_line2": "2 30954  98.7123  96.4290 0128915 159.5585 223.6503 14.14974753965261"
      },
      "geometry": {
        "type": "Point",
        "coordinates": [
          -90.05774646279619,
          -37.67481113550472
        ]
      }
    },
    {
      "type": "Feature",
      "properties": {
        "norad_id": 30956,
        "name": "FENGYUN 1C DEB",
        "group": "fengyun-1c-debris",
        "lat": -6.512251984496731,
        "lon": -150.32736703763456,
        "alt_km": 869.9278865268043,
        "timestamp": "2025-12-22T20:43:46.128245+00:00",
        "meta_object_name": "FENGYUN 1C DEB",
        "meta_object_id": "1999-025BAW",
        "meta_epoch": "2025-12-21T01:31:57.988704",
        "meta_mean_motion": 14.14235145,
        "meta_eccentricity": 0.00491177,
        "meta_inclination": 98.7589,
        "meta_ra_of_asc_node": 28.9167,
        "meta_arg_of_pericenter": 318.7398,
        "meta_mean_anomaly": 69.7504,
        "meta_ephemeris_type": 0,
        "meta_classification_type": "U",
        "meta_norad_cat_id": 30956,
        "meta_element_set_no": 999,
        "meta_rev_at_epoch": 96425,
        "meta_bstar": 0.00065219968,
        "meta_mean_motion_dot": 1.215e-05,
        "meta_mean_motion_ddot": 0,
        "tle_line1": "1 30956U 99025BAW 25355.06386561  .00001215  00000+0  65220-3 0  9999",
        "tle_line2": "2 30956  98.7589  28.9167 0049117 318.7398  69.7504 14.14235145964252"
      },
      "geometry": {
        "type": "Point",
        "coordinates": [
          -150.32736703763456,
          -6.512251984496731
        ]
      }
    },
    {
      "type": "Feature",
      "properties": {
        "norad_id": 30960,
        "name": "FENGYUN 1C DEB",
        "group": "fengyun-1c-debris",
        "lat": 44.54839650715833,
        "lon": -57.18766713558,
        "alt_km": 528.7346785008394,
        "timestamp": "2025-12-22T20:43:46.128255+00:00",
        "meta_object_name": "FENGYUN 1C DEB",
        "meta_object_id": "1999-025BBA",
        "meta_epoch": "2025-12-21T13:01:30.334080",
        "meta_mean_motion": 14.67052237,
        "meta_eccentricity": 0.0196049,
        "meta_inclination": 99.0012,
        "meta_ra_of_asc_node": 112.3854,
        "meta_arg_of_pericenter": 134.8105,
        "meta_mean_anomaly": 226.9225,
        "meta_ephemeris_type": 0,
        "meta_classification_type": "U",
        "meta_norad_cat_id": 30960,
        "meta_element_set_no": 999,
        "meta_rev_at_epoch": 98827,
        "meta_bstar": 0.0011394,
        "meta_mean_motion_dot": 8.477e-05,
        "meta_mean_motion_ddot": 0,
        "tle_line1": "1 30960U 99025BBA 25355.54271220  .00008477  00000+0  11394-2 0  9991",
        "tle_line2": "2 30960  99.0012 112.3854 0196049 134.8105 226.9225 14.67052237988275"
      },
      "geometry": {
        "type": "Point",
        "coordinates": [
          -57.18766713558,
          44.54839650715833
        ]
      }
    },
    {
      "type": "Feature",
      "properties": {
        "norad_id": 30967,
        "name": "FENGYUN 1C DEB",
        "group": "fengyun-1c-debris",
        "lat": 5.237385314488266,
        "lon": -57.201848520963395,
        "alt_km": 766.2573034984871,
        "timestamp": "2025-12-22T20:43:46.128265+00:00",
        "meta_object_name": "FENGYUN 1C DEB",
        "meta_object_id": "1999-025BBH",
        "meta_epoch": "2025-12-22T14:06:46.583424",
        "meta_mean_motion": 14.57201105,
        "meta_eccentricity": 0.0094883,
        "meta_inclination": 98.7655,
        "meta_ra_of_asc_node": 303.3185,
        "meta_arg_of_pericenter": 209.1974,
        "meta_mean_anomaly": 150.39,
        "meta_ephemeris_type": 0,
        "meta_classification_type": "U",
        "meta_norad_cat_id": 30967,
        "meta_element_set_no": 999,
        "meta_rev_at_epoch": 99157,
        "meta_bstar": 0.00061481123,
        "meta_mean_motion_dot": 2.897e-05,
        "meta_mean_motion_ddot": 0,
        "tle_line1": "1 30967U 99025BBH 25356.58803916  .00002897  00000+0  61481-3 0  9999",
        "tle_line2": "2 30967  98.7655 303.3185 0094883 209.1974 150.3900 14.57201105991579"
      },
      "geometry": {
        "type": "Point",
        "coordinates": [
          -57.201848520963395,
          5.237385314488266
        ]
      }
    },
    {
      "type": "Feature",
      "properties": {
        "norad_id": 30971,
        "name": "FENGYUN 1C DEB",
        "group": "fengyun-1c-debris",
        "lat": 18.54066261838515,
        "lon": 38.9234746928565,
        "alt_km": 744.6168462427895,
        "timestamp": "2025-12-22T20:43:46.128275+00:00",
        "meta_object_name": "FENGYUN 1C DEB",
        "meta_object_id": "1999-025BBM",
        "meta_epoch": "2025-12-19T21:39:07.398144",
        "meta_mean_motion": 14.71761036,
        "meta_eccentricity": 0.0163996,
        "meta_inclination": 99.2089,
        "meta_ra_of_asc_node": 38.6926,
        "meta_arg_of_pericenter": 169.0815,
        "meta_mean_anomaly": 8.709,
        "meta_ephemeris_type": 0,
        "meta_classification_type": "U",
        "meta_norad_cat_id": 30971,
        "meta_element_set_no": 999,
        "meta_rev_at_epoch": 99822,
        "meta_bstar": 0.00038778,
        "meta_mean_motion_dot": 2.917e-05,
        "meta_mean_motion_ddot": 0,
        "tle_line1": "1 30971U 99025BBM 25353.90216896  .00002917  00000+0  38778-3 0  9998",
        "tle_line2": "2 30971  99.2089  38.6926 0163996 169.0815   8.7090 14.71761036998227"
      },
      "geometry": {
        "type": "Point",
        "coordinates": [
          38.9234746928565,
          18.54066261838515
        ]
      }
    }
  ]
}